EUTELSAT 8 WEST B       
1 40875U 15039B   25252.92683609 -.00000068  00000+0  00000+0 0  9994
2 40875   0.0668 355.7568 0003698 174.3990 144.7176  1.00272009 36846
EUTELSAT 9B             
1 41310U 16005A   25252.93864406  .00000060  00000+0  00000+0 0  9991
2 41310   0.0412  68.9084 0002218 137.6157 129.6020  1.00271286 35304
EUTELSAT 65 WEST A      
1 41382U 16014A   25252.86219081 -.00000278  00000+0  00000+0 0  9997
2 41382   0.0664  32.7424 0002292 144.0158  57.5618  1.00268227 34722
EUTELSAT 117 WEST B     
1 41589U 16038B   25252.63788244 -.00000014  00000+0  00000+0 0  9997
2 41589   0.0133 301.3758 0000213 119.2264  40.9722  1.00271534 33850
EUTELSAT 172B           
1 42741U 17029B   25252.83783738 -.00000008  00000+0  00000+0 0  9997
2 42741   0.0168 162.2290 0000114 272.5795  27.9435  1.00271465 30919
EUTELSAT 7C             
1 44334U 19034B   25252.80523650  .00000046  00000+0  00000+0 0  9998
2 44334   0.0724 185.1548 0003195 331.1185 129.6918  1.00270771  4022
EUTELSAT 5 WEST B       
1 44624U 19067A   25252.92683609 -.00000044  00000+0  00000+0 0  9999
2 44624   0.0905 314.8125 0003196 221.0124 142.0625  1.00272565 21620
EUTELSAT KONNECT        
1 45027U 20005B   25252.30561775  .00000047  00000+0  00000+0 0  9994
2 45027   0.0642 100.6515 0001665  72.2230 292.9411  1.00269864 21517
